[{"OBJECT_NAME":"STARLINK-1540","OBJECT_ID":"2020-055AA","EPOCH":"2026-03-09T16:00:03.000096","MEAN_MOTION":15.30181677,"ECCENTRICITY":0.0001277,"INCLINATION":53.1586,"RA_OF_ASC_NODE":113.9518,"ARG_OF_PERICENTER":96.4813,"MEAN_ANOMALY":168.6408,"EPHEMERIS_TYPE":0,"CLASSIFICATION_TYPE":"U","NORAD_CAT_ID":46051,"ELEMENT_SET_NO":999,"REV_AT_EPOCH":564,"BSTAR":0.00038992,"MEAN_MOTION_DOT":0.000112,"MEAN_MOTION_DDOT":0},{"OBJECT_NAME":"ASRTU-1 (AO-123)","OBJECT_ID":"2024-199AY","EPOCH":"2026-03-09T22:36:42.151392","MEAN_MOTION":15.34070057,"ECCENTRICITY":0.0012786,"INCLINATION":97.3152,"RA_OF_ASC_NODE":298.5256,"ARG_OF_PERICENTER":309.3392,"MEAN_ANOMALY":50.6717,"EPHEMERIS_TYPE":0,"CLASSIFICATION_TYPE":"U","NORAD_CAT_ID":61781,"ELEMENT_SET_NO":999,"REV_AT_EPOCH":11870,"BSTAR":0.00032267684,"MEAN_MOTION_DOT":0.00010589,"MEAN_MOTION_DDOT":0}]
